320P/McNaught,e,4.9088,295.9295,0.7631,3.094344,0.1810719,0.68569512,305.1084,03/20.0/2020,2000,g 20.5,4.0
# From MPC105243
321P/SOHO,e,20.0448,165.0471,172.7235,2.422992,0.2613220,0.98106042,0.0000,01/17.2508/2020,2000,g 20.0,4.0
# From MPC102103
322P/SOHO,e,11.4598,351.4700,56.9358,2.508649,0.2480528,0.97977127,0.0000,08/31.5104/2019,2000,g 19.0,4.0
# From MPEC 2016-Y36
323P/SOHO,e,5.3351,324.3748,353.0455,2.582497,0.2374895,0.98482280,0.0000,01/17.7551/2021,2000,g 20.0,4.0
# From MPC108598
324P/La Sagra,e,21.4237,270.6427,58.1362,3.094702,0.1810405,0.15446891,285.0737,03/20.0/2020,2000,g 13.0,4.0
# From MPC114609
325P/Yang-Gao,e,16.7012,257.5797,343.6786,3.524265,0.1489709,0.59381702,249.9209,03/20.0/2020,2000,g 14.0,4.0
# From MPC103849
326P/Hill,e,2.4707,99.8145,278.5969,4.065010,0.1202573,0.31709514,193.8168,03/20.0/2020,2000,g 13.5,4.0
# From MPC 97499
327P/Van Ness,e,36.2372,173.9675,185.0190,3.563278,0.1465310,0.56260996,228.5952,03/20.0/2020,2000,g 16.0,4.0
# From MPC109148
328P/LONEOS-Tucker,e,17.6647,341.6134,30.4917,4.196753,0.1146394,0.55136741,177.4719,03/20.0/2020,2000,g 14.5,4.0
# From MPC101101
329P/LINEAR-Catalina,e,21.6636,87.6856,343.5728,5.193823,0.0832671,0.67680222,130.8521,03/20.0/2020,2000,g 13.5,4.0
# From MPC105243
330P/Catalina,e,15.6942,293.0959,189.0168,6.634255,0.0576788,0.54914089,74.9601,03/20.0/2020,2000,g 12.0,4.0
# From MPC110497
331P/Gibbs,e,9.7404,216.7780,183.7104,3.002887,0.1894068,0.04050709,323.3573,03/20.0/2020,2000,g 12.0,4.0
# From MPEC 2016-K18
332P/Ikeya-Murakami,e,9.3815,3.7944,152.3858,3.087676,0.1816588,0.48947420,266.1770,03/20.0/2020,2000,g 18.0,4.0
# From MPEC 2016-EI8
332P-B/Ikeya-Murakami,e,9.3805,3.8028,152.3711,3.082329,0.1821317,0.48970701,359.9699,03/17.0/2016,2000,g 19.0,4.0
# From MPEC 2016-K18
332P-C/Ikeya-Murakami,e,9.3806,3.7949,152.3771,3.087642,0.1816618,0.48947959,266.1897,03/20.0/2020,2000,g 16.5,4.0
# From MPEC 2016-ED0
332P-D/Ikeya-Murakami,e,9.3761,3.7923,152.4393,3.081138,0.1822373,0.48977814,359.9486,03/17.0/2016,2000,g 19.0,4.0
# From MPEC 2016-ED0
332P-E/Ikeya-Murakami,e,9.3774,3.8228,152.2825,3.079877,0.1823493,0.48922008,359.9889,03/17.0/2016,2000,g 21.0,4.0
# From MPEC 2016-ED0
332P-F/Ikeya-Murakami,e,9.5293,3.4757,152.8203,3.163214,0.1751908,0.49918860,359.8501,03/17.0/2016,2000,g 21.0,4.0
# From MPEC 2016-ED0
332P-G/Ikeya-Murakami,e,9.2523,3.6955,154.4000,3.050519,0.1849880,0.49200362,359.9006,03/19.0/2016,2000,g 19.0,4.0
# From MPC100285
332P-H/Ikeya-Murakami,e,9.3811,3.7946,152.3778,3.087826,0.1816456,0.48951477,266.1329,03/20.0/2020,2000,g 19.0,4.0
# From MPEC 2016-ED0
332P-I/Ikeya-Murakami,e,9.3791,3.8048,152.3297,3.081767,0.1821815,0.48955490,359.9360,03/17.0/2016,2000,g 20.5,2.0
# From MPEC 2016-EI8
332P-J/Ikeya-Murakami,e,9.4296,3.6729,152.7712,3.115165,0.1792596,0.49429435,359.8613,03/17.0/2016,2000,g 20.5,2.0
# From MPC104796
333P/LINEAR,e,131.9738,115.6220,26.0716,4.220445,0.1136755,0.73614016,164.6177,03/20.0/2020,2000,g 15.0,4.0
# From MPC111774
334P/NEAT,e,20.5422,90.7646,89.5898,6.836944,0.0551329,0.35624378,55.8948,03/20.0/2020,2000,g 10.5,4.0
# From MPC100285
335P/Gibbs,e,7.2904,330.8420,162.2419,3.578999,0.1455666,0.54501344,232.5237,03/20.0/2020,2000,g 17.0,4.0
# From MPC105244
336P/McNaught,e,17.8340,298.2289,308.6960,5.029054,0.0873926,0.44584162,99.6899,03/20.0/2020,2000,g 13.5,4.0
# From MPC112394
337P/WISE,e,15.3738,106.0721,160.9677,3.287938,0.1653175,0.49694360,222.3203,03/20.0/2020,2000,g 17.0,4.0
# From MPC104796
338P/McNaught,e,25.3646,9.7872,4.4059,3.899072,0.1280154,0.41077289,155.4099,03/20.0/2020,2000,g 12.0,4.0
# From MPC101101
339P/Gibbs,e,5.7370,172.7562,27.5209,3.695035,0.1387638,0.63610031,185.3215,03/20.0/2020,2000,g 17.0,4.0
# From MPC102957
340P/Boattini,e,2.0797,291.7284,35.7741,4.251914,0.1124158,0.28043430,136.7862,03/20.0/2020,2000,g 13.0,4.0
# From MPC109148
341P/Gibbs,e,3.7941,30.0098,312.0939,4.295303,0.1107168,0.41484146,154.1648,03/20.0/2020,2000,g 12.5,4.0
# From MPC101101
342P/SOHO,e,12.3746,38.7661,62.5677,3.042749,0.1856970,0.98337572,0.0000,10/19.1894/2021,2000,g  9.0,4.0
# From MPC109148
343P/NEAT-LONEOS,e,5.5829,257.2452,137.3892,5.463531,0.0771781,0.58352006,88.5553,03/20.0/2020,2000,g 14.0,4.0
# From MPC109148
344P/Read,e,3.4902,273.1933,140.4422,4.869076,0.0917348,0.42128526,113.3438,03/20.0/2020,2000,g 13.0,4.0
# From MPC109148
345P/LINEAR,e,2.7261,154.4971,196.3477,4.041263,0.1213189,0.22030657,162.9434,03/20.0/2020,2000,g 12.0,4.0
# From MPC110086
346P/Catalina,e,22.1856,102.4682,336.0413,4.477138,0.1040407,0.50239823,117.5284,03/20.0/2020,2000,g 14.0,4.0
# From MPC108599
347P/PANSTARRS,e,11.7476,261.0492,98.2879,3.607911,0.1438204,0.38510687,184.8637,03/20.0/2020,2000,g 15.0,4.0
# From MPC104796
348P/PANSTARRS,e,17.7215,312.9422,135.1842,3.157955,0.1756286,0.30587276,238.1691,03/20.0/2020,2000,g 14.0,4.0
# From MPC112394
349P/Lemmon,e,5.4914,331.7546,256.0308,3.571320,0.1460364,0.29965798,136.7809,03/20.0/2020,2000,g 14.0,4.0
# From MPC111775
350P/McNaught,e,7.3574,65.4219,141.4494,4.100772,0.1186877,0.09054622,97.0452,03/20.0/2020,2000,g 14.0,4.0
# From MPC105244
351P/Wiegert-PANSTARRS,e,12.7908,283.4492,352.5941,4.436565,0.1054712,0.29620852,167.0196,03/20.0/2020,2000,g 12.5,4.0
# From MPC110086
352P/Skiff,e,21.0099,28.1196,309.1043,6.633478,0.0576889,0.61798610,57.8064,03/20.0/2020,2000,g 11.5,4.0
# From MPEC 2020-AA5
353P/McNaught,e,28.4233,121.5619,230.3758,4.171702,0.1156736,0.46968033,94.8349,03/20.0/2020,2000,g 14.5,4.0
# From MPC105545
354P/LINEAR,e,5.2553,320.1308,133.0872,2.290030,0.2844083,0.12565151,349.0314,03/20.0/2020,2000,g 15.5,4.0
# From MPEC 2020-AA5
355P/LINEAR-NEAT,e,11.0340,51.4476,336.2580,3.473341,0.1522590,0.50658348,135.4169,03/20.0/2020,2000,g 15.5,2.0
# From MPC109148
356P/WISE,e,9.6331,160.7889,226.0587,4.161839,0.1160850,0.35438179,95.6718,03/20.0/2020,2000,g 14.0,4.0
# From MPC114609
357P/Hill,e,6.3089,44.5917,1.4519,4.463248,0.1045268,0.43431233,69.1175,03/20.0/2020,2000,g 15.5,4.0
# From MPC106350
358P/PANSTARRS,e,11.0570,85.7184,299.7657,3.149240,0.1763581,0.23787199,124.9788,03/20.0/2020,2000,g 18.0,4.0
# From MPC110086
359P/LONEOS,e,10.2636,149.7631,200.1173,4.639511,0.0986270,0.32370354,92.9338,03/20.0/2020,2000,g 13.5,4.0
# From MPC108599
360P/WISE,e,24.0894,2.1998,354.1114,3.703527,0.1382868,0.49835285,130.5916,03/20.0/2020,2000,g 19.5,6.0
# From MPC114609
361P/Spacewatch,e,13.8843,203.2599,219.1431,4.942294,0.0897039,0.43772261,56.2263,03/20.0/2020,2000,g 12.0,4.0
# From MPEC 2017-V13
362P/,e,15.5614,192.5981,53.6508,3.966843,0.1247489,0.28012123,162.6648,03/20.0/2020,2000,g 12.9,2.0
# From MPC114609
363P/Lemmon,e,4.1380,163.0984,323.0606,3.441131,0.1544018,0.56129987,111.3297,03/20.0/2020,2000,g 17.5,4.0
# From MPC114609
364P/PANSTARRS,e,12.1496,46.2169,211.9681,2.878544,0.2018110,0.72257536,128.0743,03/20.0/2020,2000,g 17.0,2.0
# From MPC111775
365P/PANSTARRS,e,9.8392,87.4297,66.2323,3.180935,0.1737288,0.57467137,133.4142,03/20.0/2020,2000,g 17.0,4.0
# From MPC114610
366P/Spacewatch,e,8.8596,70.7530,153.1728,3.495538,0.1508110,0.34863986,91.6539,03/20.0/2020,2000,g 15.0,4.0
# From MPC112395
367P/Catalina,e,8.4638,58.7141,172.9222,3.504949,0.1502040,0.28069742,95.7582,03/20.0/2020,2000,g 17.5,2.0
# From MPC114610
368P/NEAT,e,15.4841,257.9739,118.7831,5.526678,0.0758591,0.62601483,41.9288,03/20.0/2020,2000,g 14.0,4.0
# From MPC114610
369P/Hill,e,10.3090,47.3104,13.2359,4.387383,0.1072496,0.55410660,55.9792,03/20.0/2020,2000,g 15.0,4.0
# From MPC114610
370P/NEAT,e,19.3979,55.1496,356.7221,6.438949,0.0603228,0.61427784,39.1884,03/20.0/2020,2000,g 13.0,4.0
# From MPC114610
371P/LINEAR-Skiff,e,17.3782,67.3298,308.4587,4.181724,0.1152580,0.47622338,61.3630,03/20.0/2020,2000,g 16.0,4.0
# From MPEC 2019-TG9
372P/McNaught,e,9.5095,325.8256,27.0759,4.501402,0.1032006,0.15239318,53.3221,03/20.0/2020,2000,g 13.5,4.0
# From MPC114610
373P/Rinner,e,13.7578,231.9531,221.1787,3.806141,0.1327323,0.39224415,45.9225,03/20.0/2020,2000,g 14.5,4.0
# From MPC114610
374P/Larson,e,10.7588,7.9201,51.5631,4.976439,0.0887822,0.46226889,38.5551,03/20.0/2020,2000,g 14.0,4.0
# From MPC114610
375P/Hill,e,17.3629,359.9545,119.4604,5.560734,0.0751633,0.65903219,34.1689,03/20.0/2020,2000,g 16.0,4.0
# From MPC114610
376P/LONEOS,e,1.1930,314.8471,285.4029,5.872934,0.0692503,0.51806458,11.9724,03/20.0/2020,2000,g 12.5,4.0
# From MPC115888
377P/Scotti,e,9.0217,226.0597,354.9338,6.714567,0.0566470,0.25285322,353.6026,03/20.0/2020,2000,g  9.5,4.0
# From MPEC 2019-TG9
378P/McNaught,e,19.1098,94.5149,194.1894,6.359122,0.0614622,0.46843476,346.7440,03/20.0/2020,2000,g 12.0,4.0
# From MPC115889
379P/Spacewatch,e,12.3839,183.9881,31.2528,3.528525,0.1487011,0.33872001,34.4044,03/20.0/2020,2000,g 15.0,4.0
# From MPEC 2019-TG9
380P/PANSTARRS,e,8.2418,133.0285,90.1319,4.543412,0.1017726,0.32896957,29.2045,03/20.0/2020,2000,g 12.5,4.0
# From MPEC 2019-TG9
381P/LINEAR-Spacewatch,e,28.3763,173.7909,173.1014,7.113356,0.0519508,0.68151878,9.0966,03/20.0/2020,2000,g 17.5,2.0
# From MPC115889
382P/Larson,e,7.6609,178.0135,174.4913,6.186574,0.0640514,0.29548648,311.0244,03/20.0/2020,2000,g  8.0,4.0
# From MPC118844
383P/Christensen,e,12.3222,207.8980,133.6218,3.543216,0.1477773,0.59944744,21.5442,03/20.0/2020,2000,g 18.0,4.0
# From MPEC 2020-C98
384P/Kowalski,e,7.2812,354.2290,37.6487,2.901825,0.1993872,0.61529735,32.0193,03/20.0/2020,2000,g 19.5,4.0
# From MPEC 2020-C98
385P/Hill,e,16.8261,357.0759,44.3306,4.287604,0.1110151,0.40116387,20.7836,03/20.0/2020,2000,g 13.0,4.0
# From MPEC 2020-C98
386P/PANSTARRS,e,15.2287,134.9494,353.2711,4.058491,0.1205472,0.41648222,341.6252,03/20.0/2020,2000,g 14.5,4.0
# From MPEC 2020-C98
387P/Boattini,e,8.9170,259.3395,162.7986,4.802006,0.0936634,0.73599023,18.3419,03/20.0/2020,2000,g 15.0,4.0
# From MPEC 2020-C98
388P/Gibbs,e,23.8587,37.0535,42.4143,5.248649,0.0819658,0.61802017,19.7043,03/20.0/2020,2000,g 13.0,4.0
# From MPC118845
389P/Siding Spring,e,160.0684,218.8418,249.2992,5.629903,0.0737824,0.70455700,6.0294,03/20.0/2020,2000,g 16.0,4.0
